#dP2022 10 14  0  0  0.00000000      96 __u+U ITR14 FIT  IAC
## 2231 432000.00000000   900.00000000 59866 0.0000000000000
+  129   C01C02C03C04C05C06C07C08C09C10C11C12C13C14C16C19C20
+        C21C22C23C24C25C26C27C28C29C30C32C33C34C35C36C37C38
+        C39C40C41C42C43C44C45C46C59C60E01E02E03E04E05E07E08
+        E09E10E11E12E13E14E15E18E19E21E24E25E26E27E30E31E33
+        E34E36G01G02G03G04G05G06G07G08G09G10G11G12G13G14G15
+        G16G17G18G19G20G21G22G23G24G25G26G27G28G29G30G31G32
+        J02J03J04J07R01R02R03R04R05R06R07R08R09R10R11R12R13
+        R14R15R17R18R19R20R21R22R23R24  0  0  0  0  0  0  0
++        17 16 17 16 16  9  9  9  9  9  9  9  8  9  9  7  7
++         7  7  7  7  7  7  7  7  7  7  7  7  7  7  7  7  8
++         8  8  7  7  8  7  7  7 18 17  4  4  4  4  4  4  4
++         4  4  4  4  4  4  4  6  4  4  4  4  4  5  5  4  4
++         5  4  4  4  4  4  4  4  4  4  3  4  3  4  4  4  4
++         3  4  4  4  4  4  4  4  4  4  3  4  5  4  4  4  4
++         8  8  9 17  7  6  6  6  6 15  6  6  6 15  6  6  7
++         6  6  6  6  7  7  6  8 15  6  0  0  0  0  0  0  0
%c M  cc GPS ccc cccc cccc cccc cccc ccccc ccccc ccccc ccccc
%c cc cc ccc ccc cccc cccc cccc cccc ccccc ccccc ccccc ccccc
%f  0.0000000  0.000000000  0.00000000000  0.000000000000000
%f  0.0000000  0.000000000  0.00000000000  0.000000000000000
%i    0    0    0    0      0      0      0      0         0
%i    0    0    0    0      0      0      0      0         0
/* INFORMATION & ANALYSIS CENTER (IAC)            RAPID DATA
/* S/V CLOCKS ARE ALIGNED TO GNSS TIME                      
/* G:C1WC2W R:C1PC2P E:C1XC5X C:C2IC6I J:C1CC2S             
/* PCV:IGS14_2218 OL/AL:FES2004  NONE     YN ORB:CoN CLK:CoN
*  2022 10 14 20 15  0.00000000
PC01 -34260.370875  24582.038969    432.259880    768.898089
PC02   4303.920936  41862.062841   -451.954198    627.574948
PC03 -14750.804370  39470.195538    183.110738   -273.854991
PC04 -39584.061914  14484.116197    548.558948    122.247932
PC05  21891.718696  35980.090308   -937.094060   -158.290830
PC06  -4712.006570  24953.305270 -33625.896984    895.107697
PC07 -18072.440330  33654.861039  17724.743052   -276.898952
PC08  -5178.370984  39543.901480  13968.918951    494.259309
PC09   5531.626912  28310.220254 -30214.138025   -834.805870
PC10 -10326.078395  33557.160490  23297.912787     83.651250
PC11  25990.065477   4248.761957  -9219.712486   -351.375049
PC12  22208.060343  14798.412154   8241.421248   -482.069012
PC13    333.975154  41925.411894   5915.767648    106.924555
PC14  23342.007110  -7016.262153 -13626.949302    570.980330
PC16  -9319.689351  22205.047469 -34415.426308    129.147513
PC19 -23256.802517  14538.379309   5123.175490   -876.635370
PC20 -20413.691566   -112.675439  19018.626793    864.235449
PC21   5049.021594  15763.783281 -22458.614380   -603.810936
PC22 -12786.276659  21457.196806 -12433.262609   -850.771867
PC23   4393.263015 -25042.157332  11503.233732   -557.143088
PC24  15937.581091  12640.588941  19109.409379   -613.322760
PC25  13963.721971 -10429.884859  21783.281208      9.739889
PC26   9369.847417  25511.618386   6407.696818    -21.494219
PC27 -15389.158612 -17523.101395 -15347.417401     35.935621
PC28   3641.782079 -15592.451747 -22848.920922     24.315075
PC29 -21667.636574   4850.870980  16897.220326     26.823505
PC30 -26413.769334  -9022.769852    353.593541      0.516790
PC32  -5067.040988 -15813.483709  22433.748417   -759.429601
PC33  23201.847933 -14617.914470  -5209.161650   -912.844700
PC34  26591.224378   8307.626740  -1489.771209     16.743325
PC35  -4777.081135  15248.112369  22871.408917     41.899746
PC36 -14399.881250   9476.443298 -21920.794738   -687.111799
PC37  -8004.359705 -26204.770840  -5199.764222   -508.638876
PC38  -9992.366122  35702.971542  20267.396129     31.093352
PC39 -13736.949187  20138.936137 -34402.222195     -0.632355
PC40 -25795.230828  28757.393463  16641.663096     -6.039883
PC41  13141.742549 -21524.046267  11988.585224   -173.248325
PC42  19824.312291   1135.234904 -19579.788824   -474.415415
PC43  22197.406016  -4331.933783 -16344.171797     19.581591
PC44  15784.148238  17065.483241  15412.143850     81.575123
PC45  -4076.736365  25235.726778 -11220.266781     -9.818192
PC46 -16142.040196 -10729.767455 -20057.473772     -6.304147
PC59 -32273.549849  27129.973291   -513.012897      0.102531
PC60   7367.120170  41509.292124   1112.940898     -1.075902
PE01  -7714.885323  28198.160254   4670.080814   -546.459196
PE02   7590.605304 -28188.807429  -4833.507058    330.746382
PE03   5498.460007 -17438.290161  23269.934567   -609.760200
PE04  16183.475303  12687.345665 -21291.598333  -1136.671874
PE05  24421.926538 -12038.309297  11607.363175   -134.523024
PE07 -28848.101521   -266.348045   6605.861234   -713.274203
PE08 -16236.176790 -12495.081545  21353.916870   -615.393449
PE09  28816.307323    268.981582  -6794.823909   -693.274017
PE10  21784.983525  18237.600261  -8340.413108   -483.684555
PE11  22075.456437   9494.275827 -17290.852434   1789.947440
PE12  17981.895064  23478.909604   1182.908436   -222.281175
PE13 -22178.164151 -10267.001575  16700.070909    430.673128
PE14 -24074.438697  -6291.951404  -7771.169535     27.743574
PE15 -17909.822223 -23519.545720  -1427.223195    714.052315
PE18  30429.457915  -4170.041338  -5328.046636   -861.420898
PE19  -8538.625703  17171.838595 -22549.779786  -4266.095473
PE21 -17221.438505  20581.824780 -12489.254321   -763.445367
PE24  17414.206736    597.297934  23919.017581   -891.277055
PE25  17323.721996 -20329.503655  12763.771574   -590.191326
PE26 -12907.133257   9779.967081  24781.017327  -1727.319020
PE27 -17663.932666    647.460173 -23736.099200   -415.385926
PE30  -7115.794011 -20161.546543 -20466.446493   -916.382000
PE31   7711.318776  19488.172534  20917.901844   -505.750638
PE33   3095.036091  22815.683838  18607.631497   -454.702833
PE34  -3276.666115 -22873.491370 -18493.498116     -9.470659
PE36  13406.627192  -8865.829985 -24853.347090   -445.908339
PG01 -18724.783167  -9012.258757  16429.217490    267.542855
PG02  19936.034236   9934.647079 -13721.295496   -642.343719
PG03 -15922.826697    -21.020535  21115.680335   -364.425361
PG04 -26415.936785  -1248.939009   3008.136070   -103.549986
PG05  10734.978193  12203.560259 -21158.622913   -100.394518
PG06   3717.222743  22295.899320  13946.760962    491.181643
PG07 -13601.335036   7005.020251 -21309.119669    298.696759
PG08 -22588.556004  -6790.048547 -12600.054985    -88.855009
PG09 -24113.694159   7835.686916  -8063.837322   -283.178431
PG10  11115.968850 -23925.799152    746.486117     -7.504917
PG11  11598.327696  23711.089125   3131.448845    -25.904711
PG12  15887.299527   1404.204050  20954.767020   -292.258314
PG13  15617.965462  13032.859942 -17348.214960    406.063677
PG14 -13261.453847  22909.306999  -1204.705433    -95.023385
PG15  23215.870052   4920.612930 -12658.830330    -20.895539
PG16  -4849.780093 -17676.257836 -19329.945205   -526.200566
PG17 -13861.075470  12933.331223  19069.655058    668.743087
PG18  12208.379931  -8649.198286 -21946.425309     14.642382
PG19  -2201.236696  14664.845456  21788.806716    223.822655
PG20   2751.964885  23138.013177 -12946.532309    478.374187
PG21 -20535.460938 -14828.569821   9765.396681    158.010469
PG22  -1115.561384 -15395.516019  22042.273821    345.725354
PG23  15922.948836 -18796.302574  -9763.371304     -0.989545
PG24  20670.556364  11284.521640  12353.119282     99.766435
PG25  17775.984648 -11075.135594  15876.815142    382.389326
PG26   1124.262366 -23954.295260 -11144.349597    232.453119
PG27 -12365.225220 -12881.663752 -20005.108603    197.957802
PG28  -7864.193766  24189.394666   8575.466973    328.984928
PG29  25237.618345  -4551.762500  -7119.996724   -559.619903
PG30  -5012.374186  17794.862283 -18889.010923   -537.218044
PG31  -4011.195651 -22762.281671  12511.463399   -196.789221
PG32  10041.787482 -14697.635705  19799.537250   -263.429454
PJ02 -24383.769232  32364.327029  -7221.602204     -7.237603
PJ03 -27062.492982  22054.790786  28729.541103     -2.901478
PJ04 -33148.428717  26224.964543   4446.201968    111.831496
PJ07 -25364.237111  33689.298763    -48.709808     -0.000054
PR01   1104.256036 -12845.635378  22004.599801     16.250287
PR02 -16385.609093  -1635.970471  19541.782911    -22.992033
PR03 -23020.006788   9694.457133   5368.032708     65.470882
PR04 -16872.566368  15241.515852 -11558.586024    161.179828
PR05  -1535.506836  12558.462350 -22150.502063    101.253654
PR06  17157.704424    500.277878 -18874.889463    -75.029618
PR07  22952.766196 -10089.049575  -4510.006552     42.577204
PR08  16602.750025 -15397.556152  11760.287294    -67.630810
PR09   9911.978115  12303.236291  20020.992702     82.046006
PR10  10847.159745  -4831.079098  22563.124405    -86.896060
PR11   6039.310982 -21449.320564  12441.057024     24.550330
PR12  -2517.786841 -24623.747336  -6100.313331     22.035476
PR13  -9185.219380 -13920.643551 -19310.686638    -27.802104
PR14 -10796.132460   6660.961619 -22112.012587     24.205125
PR15  -5910.353048  21984.190591 -11482.850268     93.208385
PR17 -19127.544235  -2930.193400  16602.593588    569.114872
PR18  -6373.715054   8324.265615  23271.646869     47.115072
PR19   8230.588108  15400.727257  18602.100181   -207.275427
PR20  21088.641426  14316.985470    381.480028    -80.200820
PR21  18269.719459   2017.851445 -17702.120265   -341.580291
PR22   6196.435970  -8895.795994 -23061.619515     14.368570
PR23 -12969.903569 -16131.882789 -14906.150033    -58.504808
PR24 -21670.439071 -13427.623504    346.805337    120.359644
EOF
